STARLINK-30388          
1 57784U 23134P   25212.59616239  .00000335  00000+0  39879-4 0  9997
2 57784  43.0042 318.8174 0001301 265.8755  94.1939 15.02536548106215
STARLINK-30381          
1 57785U 23134Q   25212.63931658 -.00000569  00000+0 -27075-4 0  9994
2 57785  43.0053 318.1883 0001566 261.5620  98.5045 15.02536980106222
STARLINK-30382          
1 57786U 23134R   25212.59283363 -.00000069  00000+0  99860-5 0  9999
2 57786  43.0038 318.7936 0000723 253.7629 106.3134 15.02534079105972
STARLINK-30378          
1 57787U 23134S   25212.76895541 -.00001389  00000+0 -87739-4 0  9994
2 57787  43.0042 317.5338 0001293 277.5104  82.5591 15.02541919106240
STARLINK-30387          
1 57788U 23134T   25212.75925658 -.00000702  00000+0 -36892-4 0  9999
2 57788  43.0044 304.6533 0001426 270.3978  89.6701 15.02529525106391
STARLINK-30372          
1 57789U 23134U   25212.39119632 -.00001474  00000+0 -44056-4 0  9995
2 57789  42.9989 248.1498 0001305 261.3050  98.7654 15.27584568107021
STARLINK-30373          
1 57790U 23134V   25212.91668981  .00147614  00000+0  29643-2 0  9999
2 57790  42.9950 263.7181 0017348  50.4591  90.9736 15.45254889  5947
STARLINK-30367          
1 57791U 23134W   25212.64598745 -.00000194  00000+0  70644-6 0  9993
2 57791  43.0028 318.3305 0001064 266.9792  93.0929 15.02539863106228
STARLINK-30304          
1 57808U 23138A   25212.50949988  .00031029  00000+0  63697-3 0  9997
2 57808  42.9933 225.3958 0016985  91.8168 268.4635 15.45292135106936
STARLINK-30374          
1 57809U 23138B   25212.72834316 -.00000340  00000+0 -10058-4 0  9998
2 57809  43.0044 357.0679 0001326 278.8153  81.2539 15.02543591105479
STARLINK-30394          
1 57810U 23138C   25212.65852901  .00000168  00000+0  27504-4 0  9992
2 57810  43.0052 357.4018 0001344 270.1884  89.8804 15.02543150105365
STARLINK-30379          
1 57811U 23138D   25212.72167983 -.00000038  00000+0  12230-4 0  9997
2 57811  43.0041 357.0179 0001121 268.6656  91.4058 15.02537538105475
STARLINK-30395          
1 57812U 23138E   25212.45244025 -.00000203  00000+0  54972-7 0  9997
2 57812  43.0043 358.4366 0001498 275.6643  84.4029 15.02538216105432
STARLINK-30403          
1 57813U 23138F   25212.84797645  .00000807  00000+0  74809-4 0  9999
2 57813  43.0025 356.2448 0001127 273.2916  86.7797 15.02547557105396
STARLINK-30413          
1 57814U 23138G   25212.69504068  .00000442  00000+0  47772-4 0  9992
2 57814  43.0027 356.8224 0001390 269.4972  90.5711 15.02539647105477
STARLINK-30398          
1 57815U 23138H   25212.71168289  .00001986  00000+0  16200-3 0  9992
2 57815  43.0031 356.9393 0000660 225.1418 134.9371 15.02541782105371
STARLINK-30386          
1 57816U 23138J   25212.84132848 -.00001911  00000+0 -12649-3 0  9992
2 57816  43.0051 356.1944 0001452 275.2350  84.8326 15.02523469105318
