[{"OBJECT_NAME":"STARLINK-30388","OBJECT_ID":"2023-134P","EPOCH":"2025-07-31T14:18:28.430496","MEAN_MOTION":15.02536548,"ECCENTRICITY":0.0001301,"INCLINATION":43.0042,"RA_OF_ASC_NODE":318.8174,"ARG_OF_PERICENTER":265.8755,"MEAN_ANOMALY":94.1939,"EPHEMERIS_TYPE":0,"CLASSIFICATION_TYPE":"U","NORAD_CAT_ID":57784,"ELEMENT_SET_NO":999,"REV_AT_EPOCH":10621,"BSTAR":3.9879e-5,"MEAN_MOTION_DOT":3.35e-6,"MEAN_MOTION_DDOT":0},{"OBJECT_NAME":"STARLINK-30381","OBJECT_ID":"2023-134Q","EPOCH":"2025-07-31T15:20:36.952512","MEAN_MOTION":15.0253698,"ECCENTRICITY":0.0001566,"INCLINATION":43.0053,"RA_OF_ASC_NODE":318.1883,"ARG_OF_PERICENTER":261.562,"MEAN_ANOMALY":98.5045,"EPHEMERIS_TYPE":0,"CLASSIFICATION_TYPE":"U","NORAD_CAT_ID":57785,"ELEMENT_SET_NO":999,"REV_AT_EPOCH":10622,"BSTAR":-2.7075e-5,"MEAN_MOTION_DOT":-5.69e-6,"MEAN_MOTION_DDOT":0},{"OBJECT_NAME":"STARLINK-30382","OBJECT_ID":"2023-134R","EPOCH":"2025-07-31T14:13:40.825632","MEAN_MOTION":15.02534079,"ECCENTRICITY":7.23e-5,"INCLINATION":43.0038,"RA_OF_ASC_NODE":318.7936,"ARG_OF_PERICENTER":253.7629,"MEAN_ANOMALY":106.3134,"EPHEMERIS_TYPE":0,"CLASSIFICATION_TYPE":"U","NORAD_CAT_ID":57786,"ELEMENT_SET_NO":999,"REV_AT_EPOCH":10597,"BSTAR":9.986e-6,"MEAN_MOTION_DOT":-6.9e-7,"MEAN_MOTION_DDOT":0},{"OBJECT_NAME":"STARLINK-30378","OBJECT_ID":"2023-134S","EPOCH":"2025-07-31T18:27:17.747424","MEAN_MOTION":15.02541919,"ECCENTRICITY":0.0001293,"INCLINATION":43.0042,"RA_OF_ASC_NODE":317.5338,"ARG_OF_PERICENTER":277.5104,"MEAN_ANOMALY":82.5591,"EPHEMERIS_TYPE":0,"CLASSIFICATION_TYPE":"U","NORAD_CAT_ID":57787,"ELEMENT_SET_NO":999,"REV_AT_EPOCH":10624,"BSTAR":-8.7739e-5,"MEAN_MOTION_DOT":-1.389e-5,"MEAN_MOTION_DDOT":0},{"OBJECT_NAME":"STARLINK-30387","OBJECT_ID":"2023-134T","EPOCH":"2025-07-31T18:13:19.768512","MEAN_MOTION":15.02529525,"ECCENTRICITY":0.0001426,"INCLINATION":43.0044,"RA_OF_ASC_NODE":304.6533,"ARG_OF_PERICENTER":270.3978,"MEAN_ANOMALY":89.6701,"EPHEMERIS_TYPE":0,"CLASSIFICATION_TYPE":"U","NORAD_CAT_ID":57788,"ELEMENT_SET_NO":999,"REV_AT_EPOCH":10639,"BSTAR":-3.6892e-5,"MEAN_MOTION_DOT":-7.02e-6,"MEAN_MOTION_DDOT":0},{"OBJECT_NAME":"STARLINK-30372","OBJECT_ID":"2023-134U","EPOCH":"2025-07-31T09:23:19.362048","MEAN_MOTION":15.27584568,"ECCENTRICITY":0.0001305,"INCLINATION":42.9989,"RA_OF_ASC_NODE":248.1498,"ARG_OF_PERICENTER":261.305,"MEAN_ANOMALY":98.7654,"EPHEMERIS_TYPE":0,"CLASSIFICATION_TYPE":"U","NORAD_CAT_ID":57789,"ELEMENT_SET_NO":999,"REV_AT_EPOCH":10702,"BSTAR":-4.4056e-5,"MEAN_MOTION_DOT":-1.474e-5,"MEAN_MOTION_DDOT":0},{"OBJECT_NAME":"STARLINK-30373","OBJECT_ID":"2023-134V","EPOCH":"2025-07-31T22:00:01.999584","MEAN_MOTION":15.45254889,"ECCENTRICITY":0.0017348,"INCLINATION":42.995,"RA_OF_ASC_NODE":263.7181,"ARG_OF_PERICENTER":50.4591,"MEAN_ANOMALY":90.9736,"EPHEMERIS_TYPE":0,"CLASSIFICATION_TYPE":"U","NORAD_CAT_ID":57790,"ELEMENT_SET_NO":999,"REV_AT_EPOCH":594,"BSTAR":0.0029643,"MEAN_MOTION_DOT":0.00147614,"MEAN_MOTION_DDOT":0},{"OBJECT_NAME":"STARLINK-30367","OBJECT_ID":"2023-134W","EPOCH":"2025-07-31T15:30:13.315680","MEAN_MOTION":15.02539863,"ECCENTRICITY":0.0001064,"INCLINATION":43.0028,"RA_OF_ASC_NODE":318.3305,"ARG_OF_PERICENTER":266.9792,"MEAN_ANOMALY":93.0929,"EPHEMERIS_TYPE":0,"CLASSIFICATION_TYPE":"U","NORAD_CAT_ID":57791,"ELEMENT_SET_NO":999,"REV_AT_EPOCH":10622,"BSTAR":7.0644e-7,"MEAN_MOTION_DOT":-1.94e-6,"MEAN_MOTION_DDOT":0},{"OBJECT_NAME":"STARLINK-30304","OBJECT_ID":"2023-138A","EPOCH":"2025-07-31T12:13:40.789632","MEAN_MOTION":15.45292135,"ECCENTRICITY":0.0016985,"INCLINATION":42.9933,"RA_OF_ASC_NODE":225.3958,"ARG_OF_PERICENTER":91.8168,"MEAN_ANOMALY":268.4635,"EPHEMERIS_TYPE":0,"CLASSIFICATION_TYPE":"U","NORAD_CAT_ID":57808,"ELEMENT_SET_NO":999,"REV_AT_EPOCH":10693,"BSTAR":0.00063697,"MEAN_MOTION_DOT":0.00031029,"MEAN_MOTION_DDOT":0},{"OBJECT_NAME":"STARLINK-30374","OBJECT_ID":"2023-138B","EPOCH":"2025-07-31T17:28:48.849024","MEAN_MOTION":15.02543591,"ECCENTRICITY":0.0001326,"INCLINATION":43.0044,"RA_OF_ASC_NODE":357.0679,"ARG_OF_PERICENTER":278.8153,"MEAN_ANOMALY":81.2539,"EPHEMERIS_TYPE":0,"CLASSIFICATION_TYPE":"U","NORAD_CAT_ID":57809,"ELEMENT_SET_NO":999,"REV_AT_EPOCH":10547,"BSTAR":-1.0058e-5,"MEAN_MOTION_DOT":-3.4e-6,"MEAN_MOTION_DDOT":0},{"OBJECT_NAME":"STARLINK-30394","OBJECT_ID":"2023-138C","EPOCH":"2025-07-31T15:48:16.906464","MEAN_MOTION":15.0254315,"ECCENTRICITY":0.0001344,"INCLINATION":43.0052,"RA_OF_ASC_NODE":357.4018,"ARG_OF_PERICENTER":270.1884,"MEAN_ANOMALY":89.8804,"EPHEMERIS_TYPE":0,"CLASSIFICATION_TYPE":"U","NORAD_CAT_ID":57810,"ELEMENT_SET_NO":999,"REV_AT_EPOCH":10536,"BSTAR":2.7504e-5,"MEAN_MOTION_DOT":1.68e-6,"MEAN_MOTION_DDOT":0},{"OBJECT_NAME":"STARLINK-30379","OBJECT_ID":"2023-138D","EPOCH":"2025-07-31T17:19:13.137312","MEAN_MOTION":15.02537538,"ECCENTRICITY":0.0001121,"INCLINATION":43.0041,"RA_OF_ASC_NODE":357.0179,"ARG_OF_PERICENTER":268.6656,"MEAN_ANOMALY":91.4058,"EPHEMERIS_TYPE":0,"CLASSIFICATION_TYPE":"U","NORAD_CAT_ID":57811,"ELEMENT_SET_NO":999,"REV_AT_EPOCH":10547,"BSTAR":1.223e-5,"MEAN_MOTION_DOT":-3.8e-7,"MEAN_MOTION_DDOT":0},{"OBJECT_NAME":"STARLINK-30395","OBJECT_ID":"2023-138E","EPOCH":"2025-07-31T10:51:30.837600","MEAN_MOTION":15.02538216,"ECCENTRICITY":0.0001498,"INCLINATION":43.0043,"RA_OF_ASC_NODE":358.4366,"ARG_OF_PERICENTER":275.6643,"MEAN_ANOMALY":84.4029,"EPHEMERIS_TYPE":0,"CLASSIFICATION_TYPE":"U","NORAD_CAT_ID":57812,"ELEMENT_SET_NO":999,"REV_AT_EPOCH":10543,"BSTAR":5.4972e-8,"MEAN_MOTION_DOT":-2.03e-6,"MEAN_MOTION_DDOT":0},{"OBJECT_NAME":"STARLINK-30403","OBJECT_ID":"2023-138F","EPOCH":"2025-07-31T20:21:05.165280","MEAN_MOTION":15.02547557,"ECCENTRICITY":0.0001127,"INCLINATION":43.0025,"RA_OF_ASC_NODE":356.2448,"ARG_OF_PERICENTER":273.2916,"MEAN_ANOMALY":86.7797,"EPHEMERIS_TYPE":0,"CLASSIFICATION_TYPE":"U","NORAD_CAT_ID":57813,"ELEMENT_SET_NO":999,"REV_AT_EPOCH":10539,"BSTAR":7.4809e-5,"MEAN_MOTION_DOT":8.07e-6,"MEAN_MOTION_DDOT":0},{"OBJECT_NAME":"STARLINK-30413","OBJECT_ID":"2023-138G","EPOCH":"2025-07-31T16:40:51.514752","MEAN_MOTION":15.02539647,"ECCENTRICITY":0.000139,"INCLINATION":43.0027,"RA_OF_ASC_NODE":356.8224,"ARG_OF_PERICENTER":269.4972,"MEAN_ANOMALY":90.5711,"EPHEMERIS_TYPE":0,"CLASSIFICATION_TYPE":"U","NORAD_CAT_ID":57814,"ELEMENT_SET_NO":999,"REV_AT_EPOCH":10547,"BSTAR":4.7772e-5,"MEAN_MOTION_DOT":4.42e-6,"MEAN_MOTION_DDOT":0},{"OBJECT_NAME":"STARLINK-30398","OBJECT_ID":"2023-138H","EPOCH":"2025-07-31T17:04:49.401696","MEAN_MOTION":15.02541782,"ECCENTRICITY":6.6e-5,"INCLINATION":43.0031,"RA_OF_ASC_NODE":356.9393,"ARG_OF_PERICENTER":225.1418,"MEAN_ANOMALY":134.9371,"EPHEMERIS_TYPE":0,"CLASSIFICATION_TYPE":"U","NORAD_CAT_ID":57815,"ELEMENT_SET_NO":999,"REV_AT_EPOCH":10537,"BSTAR":0.000162,"MEAN_MOTION_DOT":1.986e-5,"MEAN_MOTION_DDOT":0},{"OBJECT_NAME":"STARLINK-30386","OBJECT_ID":"2023-138J","EPOCH":"2025-07-31T20:11:30.780672","MEAN_MOTION":15.02523469,"ECCENTRICITY":0.0001452,"INCLINATION":43.0051,"RA_OF_ASC_NODE":356.1944,"ARG_OF_PERICENTER":275.235,"MEAN_ANOMALY":84.8326,"EPHEMERIS_TYPE":0,"CLASSIFICATION_TYPE":"U","NORAD_CAT_ID":57816,"ELEMENT_SET_NO":999,"REV_AT_EPOCH":10531,"BSTAR":-0.00012649,"MEAN_MOTION_DOT":-1.911e-5,"MEAN_MOTION_DDOT":0}]
